{"type": "FeatureCollection", "features": [ {"type": "Feature", "properties": {"norad_id": 29820, "name": "FENGYUN 1C DEB", "group": "fengyun-1c-debris", "lat": 77.30993532806374, "lon": -144.79815511188946, "alt_km": 920.2979960013372, "timestamp": "2025-12-10T09:57:44.970820+00:00", "meta": {"OBJECT_NAME": "FENGYUN 1C DEB", "OBJECT_ID": "1999-025DN", "EPOCH": "2025-12-09T23:21:07.454880", "MEAN_MOTION": 14.0259691, "ECCENTRICITY": 0.0071957, "INCLINATION": 98.8316, "RA_OF_ASC_NODE": 351.1087, "ARG_OF_PERICENTER": 245.5191, "MEAN_ANOMALY": 142.9918, "EPHEMERIS_TYPE": 0, "CLASSIFICATION_TYPE": "U", "NORAD_CAT_ID": 29820, "ELEMENT_SET_NO": 999, "REV_AT_EPOCH": 96521, "BSTAR": 0.00074326, "MEAN_MOTION_DOT": 1.129e-05, "MEAN_MOTION_DDOT": 0}, "tle": {"line1": "1 29820U 99025DN  25343.97300295  .00001129  00000+0  74326-3 0  9995", "line2": "2 29820  98.8316 351.1087 0071957 245.5191 142.9918 14.02596910965213"}}, "geometry": {"type": "Point", "coordinates": [-144.79815511188946, 77.30993532806374]}}, {"type": "Feature", "properties": {"norad_id": 29821, "name": "FENGYUN 1C DEB", "group": "fengyun-1c-debris", "lat": 72.36329604091425, "lon": 9.998994639616859, "alt_km": 676.8416330125328, "timestamp": "2025-12-10T09:57:44.970830+00:00", "meta": {"OBJECT_NAME": "FENGYUN 1C DEB", "OBJECT_ID": "1999-025DP", "EPOCH": "2025-12-10T02:56:40.331328", "MEAN_MOTION": 14.11048116, "ECCENTRICITY": 0.0376332, "INCLINATION": 98.8737, "RA_OF_ASC_NODE": 39.1413, "ARG_OF_PERICENTER": 128.0889, "MEAN_ANOMALY": 265.4297, "EPHEMERIS_TYPE": 0, "CLASSIFICATION_TYPE": "U", "NORAD_CAT_ID": 29821, "ELEMENT_SET_NO": 999, "REV_AT_EPOCH": 96474, "BSTAR": 0.00089692, "MEAN_MOTION_DOT": 3.099e-05, "MEAN_MOTION_DDOT": 0}, "tle": {"line1": "1 29821U 99025DP  25344.12268902  .00003099  00000+0  89692-3 0  9992", "line2": "2 29821  98.8737  39.1413 0376332 128.0889 265.4297 14.11048116964749"}}, "geometry": {"type": "Point", "coordinates": [9.998994639616859, 72.36329604091425]}}, {"type": "Feature", "properties": {"norad_id": 29827, "name": "FENGYUN 1C DEB", "group": "fengyun-1c-debris", "lat": -27.37200865524832, "lon": -19.83312298340814, "alt_km": 807.2668298486724, "timestamp": "2025-12-10T09:57:44.970840+00:00", "meta": {"OBJECT_NAME": "FENGYUN 1C DEB", "OBJECT_ID": "1999-025DV", "EPOCH": "2025-12-08T22:52:37.934112", "MEAN_MOTION": 14.21677819, "ECCENTRICITY": 0.0025205, "INCLINATION": 98.6017, "RA_OF_ASC_NODE": 334.2475, "ARG_OF_PERICENTER": 333.6576, "MEAN_ANOMALY": 80.9572, "EPHEMERIS_TYPE": 0, "CLASSIFICATION_TYPE": "U", "NORAD_CAT_ID": 29827, "ELEMENT_SET_NO": 999, "REV_AT_EPOCH": 97809, "BSTAR": 0.00051498, "MEAN_MOTION_DOT": 1.091e-05, "MEAN_MOTION_DDOT": 0}, "tle": {"line1": "1 29827U 99025DV  25342.95321683  .00001091  00000+0  51498-3 0  9996", "line2": "2 29827  98.6017 334.2475 0025205 333.6576  80.9572 14.21677819978096"}}, "geometry": {"type": "Point", "coordinates": [-19.83312298340814, -27.37200865524832]}}, {"type": "Feature", "properties": {"norad_id": 29828, "name": "FENGYUN 1C DEB", "group": "fengyun-1c-debris", "lat": 37.82210374964901, "lon": -143.1668410097881, "alt_km": 821.3329582626393, "timestamp": "2025-12-10T09:57:44.970850+00:00", "meta": {"OBJECT_NAME": "FENGYUN 1C DEB", "OBJECT_ID": "1999-025DW", "EPOCH": "2025-12-09T23:37:49.255104", "MEAN_MOTION": 14.08152438, "ECCENTRICITY": 0.0061324, "INCLINATION": 98.7702, "RA_OF_ASC_NODE": 29.532, "ARG_OF_PERICENTER": 163.7151, "MEAN_ANOMALY": 316.9257, "EPHEMERIS_TYPE": 0, "CLASSIFICATION_TYPE": "U", "NORAD_CAT_ID": 29828, "ELEMENT_SET_NO": 999, "REV_AT_EPOCH": 96698, "BSTAR": 0.00098797, "MEAN_MOTION_DOT": 1.671e-05, "MEAN_MOTION_DDOT": 0}, "tle": {"line1": "1 29828U 99025DW  25343.98459786  .00001671  00000+0  98797-3 0  9994", "line2": "2 29828  98.7702  29.5320 0061324 163.7151 316.9257 14.08152438966982"}}, "geometry": {"type": "Point", "coordinates": [-143.1668410097881, 37.82210374964901]}}, {"type": "Feature", "properties": {"norad_id": 29832, "name": "FENGYUN 1C DEB", "group": "fengyun-1c-debris", "lat": 51.03036724664861, "lon": -73.22815007382606, "alt_km": 829.0386230182166, "timestamp": "2025-12-10T09:57:44.970860+00:00", "meta": {"OBJECT_NAME": "FENGYUN 1C DEB", "OBJECT_ID": "1999-025EA", "EPOCH": "2025-12-09T18:31:33.633120", "MEAN_MOTION": 14.56548345, "ECCENTRICITY": 0.0192272, "INCLINATION": 98.8194, "RA_OF_ASC_NODE": 95.0257, "ARG_OF_PERICENTER": 292.2128, "MEAN_ANOMALY": 65.877, "EPHEMERIS_TYPE": 0, "CLASSIFICATION_TYPE": "U", "NORAD_CAT_ID": 29832, "ELEMENT_SET_NO": 999, "REV_AT_EPOCH": 212, "BSTAR": 0.00025542, "MEAN_MOTION_DOT": 1.396e-05, "MEAN_MOTION_DDOT": 0}, "tle": {"line1": "1 29832U 99025EA  25343.77191705  .00001396  00000+0  25542-3 0  9992", "line2": "2 29832  98.8194  95.0257 0192272 292.2128  65.8770 14.56548345  2125"}}, "geometry": {"type": "Point", "coordinates": [-73.22815007382606, 51.03036724664861]}}, {"type": "Feature", "properties": {"norad_id": 29833, "name": "FENGYUN 1C DEB", "group": "fengyun-1c-debris", "lat": -25.559901331927584, "lon": 142.00342066887907, "alt_km": 567.9813051747897, "timestamp": "2025-12-10T09:57:44.970870+00:00", "meta": {"OBJECT_NAME": "FENGYUN 1C DEB", "OBJECT_ID": "1999-025EB", "EPOCH": "2025-12-09T21:45:34.427808", "MEAN_MOTION": 14.90987993, "ECCENTRICITY": 0.0088912, "INCLINATION": 99.0773, "RA_OF_ASC_NODE": 325.8045, "ARG_OF_PERICENTER": 266.2917, "MEAN_ANOMALY": 92.8127, "EPHEMERIS_TYPE": 0, "CLASSIFICATION_TYPE": "U", "NORAD_CAT_ID": 29833, "ELEMENT_SET_NO": 999, "REV_AT_EPOCH": 529, "BSTAR": 0.0018952, "MEAN_MOTION_DOT": 0.00020172, "MEAN_MOTION_DDOT": 0}, "tle": {"line1": "1 29833U 99025EB  25343.90664847  .00020172  00000+0  18952-2 0  9999", "line2": "2 29833  99.0773 325.8045 0088912 266.2917  92.8127 14.90987993  5294"}}, "geometry": {"type": "Point", "coordinates": [142.00342066887907, -25.559901331927584]}}, {"type": "Feature", "properties": {"norad_id": 29835, "name": "FENGYUN 1C DEB", "group": "fengyun-1c-debris", "lat": 70.60100810266874, "lon": 85.8338215801461, "alt_km": 635.0023819227408, "timestamp": "2025-12-10T09:57:44.970880+00:00", "meta": {"OBJECT_NAME": "FENGYUN 1C DEB", "OBJECT_ID": "1999-025ED", "EPOCH": "2025-12-09T15:24:05.020128", "MEAN_MOTION": 14.4337231, "ECCENTRICITY": 0.0168059, "INCLINATION": 99.0255, "RA_OF_ASC_NODE": 111.8461, "ARG_OF_PERICENTER": 46.3733, "MEAN_ANOMALY": 329.2098, "EPHEMERIS_TYPE": 0, "CLASSIFICATION_TYPE": "U", "NORAD_CAT_ID": 29835, "ELEMENT_SET_NO": 999, "REV_AT_EPOCH": 99450, "BSTAR": 0.0001115, "MEAN_MOTION_DOT": 3.9e-06, "MEAN_MOTION_DDOT": 0}, "tle": {"line1": "1 29835U 99025ED  25343.64172477  .00000390  00000+0  11150-3 0  9999", "line2": "2 29835  99.0255 111.8461 0168059  46.3733 329.2098 14.43372310994504"}}, "geometry": {"type": "Point", "coordinates": [85.8338215801461, 70.60100810266874]}}, {"type": "Feature", "properties": {"norad_id": 29836, "name": "FENGYUN 1C DEB", "group": "fengyun-1c-debris", "lat": -51.88780500225974, "lon": -110.17301561935871, "alt_km": 618.2420693234608, "timestamp": "2025-12-10T09:57:44.970890+00:00", "meta": {"OBJECT_NAME": "FENGYUN 1C DEB", "OBJECT_ID": "1999-025EE", "EPOCH": "2025-12-09T13:07:53.518080", "MEAN_MOTION": 14.54069038, "ECCENTRICITY": 0.015443, "INCLINATION": 98.1879, "RA_OF_ASC_NODE": 79.554, "ARG_OF_PERICENTER": 212.2557, "MEAN_ANOMALY": 158.8492, "EPHEMERIS_TYPE": 0, "CLASSIFICATION_TYPE": "U", "NORAD_CAT_ID": 29836, "ELEMENT_SET_NO": 999, "REV_AT_EPOCH": 63509, "BSTAR": 0.0010746, "MEAN_MOTION_DOT": 5.268e-05, "MEAN_MOTION_DDOT": 0}, "tle": {"line1": "1 29836U 99025EE  25343.54714720  .00005268  00000+0  10746-2 0  9990", "line2": "2 29836  98.1879  79.5540 0154430 212.2557 158.8492 14.54069038635093"}}, "geometry": {"type": "Point", "coordinates": [-110.17301561935871, -51.88780500225974]}}, {"type": "Feature", "properties": {"norad_id": 29841, "name": "FENGYUN 1C DEB", "group": "fengyun-1c-debris", "lat": -50.208192287365335, "lon": -57.79160496752453, "alt_km": 621.7227330437363, "timestamp": "2025-12-10T09:57:44.970900+00:00", "meta": {"OBJECT_NAME": "FENGYUN 1C DEB", "OBJECT_ID": "1999-025EK", "EPOCH": "2025-12-09T19:22:56.570880", "MEAN_MOTION": 14.46452475, "ECCENTRICITY": 0.0200726, "INCLINATION": 98.8182, "RA_OF_ASC_NODE": 290.8349, "ARG_OF_PERICENTER": 342.5011, "MEAN_ANOMALY": 46.1332, "EPHEMERIS_TYPE": 0, "CLASSIFICATION_TYPE": "U", "NORAD_CAT_ID": 29841, "ELEMENT_SET_NO": 999, "REV_AT_EPOCH": 99281, "BSTAR": 0.00098723, "MEAN_MOTION_DOT": 4.507e-05, "MEAN_MOTION_DDOT": 0}, "tle": {"line1": "1 29841U 99025EK  25343.80759920  .00004507  00000+0  98723-3 0  9993", "line2": "2 29841  98.8182 290.8349 0200726 342.5011  46.1332 14.46452475992810"}}, "geometry": {"type": "Point", "coordinates": [-57.79160496752453, -50.208192287365335]}}, {"type": "Feature", "properties": {"norad_id": 29842, "name": "FENGYUN 1C DEB", "group": "fengyun-1c-debris", "lat": -63.50327440073258, "lon": -125.73326090442775, "alt_km": 675.5265219583926, "timestamp": "2025-12-10T09:57:44.970910+00:00", "meta": {"OBJECT_NAME": "FENGYUN 1C DEB", "OBJECT_ID": "1999-025EL", "EPOCH": "2025-12-09T05:08:31.348608", "MEAN_MOTION": 14.60168236, "ECCENTRICITY": 0.01092069, "INCLINATION": 98.5689, "RA_OF_ASC_NODE": 70.6311, "ARG_OF_PERICENTER": 176.1578, "MEAN_ANOMALY": 238.6796, "EPHEMERIS_TYPE": 0, "CLASSIFICATION_TYPE": "U", "NORAD_CAT_ID": 29842, "ELEMENT_SET_NO": 999, "REV_AT_EPOCH": 99302, "BSTAR": 0.0019398696, "MEAN_MOTION_DOT": 0.00010118, "MEAN_MOTION_DDOT": 0}, "tle": {"line1": "1 29842U 99025EL  25343.21425172  .00010118  00000+0  19399-2 0  9994", "line2": "2 29842  98.5689  70.6311 0109206 176.1578 238.6796 14.60168236993024"}}, "geometry": {"type": "Point", "coordinates": [-125.73326090442775, -63.50327440073258]}}]}